CCSDS_OMM_VERS = 2.0
CREATION_DATE  = 
ORIGINATOR     = 

OBJECT_NAME    = STARLINK-36479
OBJECT_ID      = 2026-003U
CENTER_NAME    = EARTH
REF_FRAME      = TEME
TIME_SYSTEM    = UTC
MEAN_ELEMENT_THEORY = SGP/SGP4

EPOCH          = 2026-02-02T06:00:02.000160
MEAN_MOTION    = 15.50520009
ECCENTRICITY   = .00011376
INCLINATION    = 42.9995
RA_OF_ASC_NODE = 68.7362
ARG_OF_PERICENTER = 278.4004
MEAN_ANOMALY   = 178.2850

EPHEMERIS_TYPE = 0
CLASSIFICATION_TYPE = U
NORAD_CAT_ID   = 67352
ELEMENT_SET_NO = 999
REV_AT_EPOCH   = 497
BSTAR          = .73816388E-3
MEAN_MOTION_DOT = .4311E-3
MEAN_MOTION_DDOT = 0

CCSDS_OMM_VERS = 2.0
CREATION_DATE  = 
ORIGINATOR     = 

OBJECT_NAME    = STARLINK-36474
OBJECT_ID      = 2026-003V
CENTER_NAME    = EARTH
REF_FRAME      = TEME
TIME_SYSTEM    = UTC
MEAN_ELEMENT_THEORY = SGP/SGP4

EPOCH          = 2026-02-02T06:00:02.000160
MEAN_MOTION    = 15.50567818
ECCENTRICITY   = .0001797
INCLINATION    = 42.9992
RA_OF_ASC_NODE = 68.7310
ARG_OF_PERICENTER = 258.4573
MEAN_ANOMALY   = 200.0041

EPHEMERIS_TYPE = 0
CLASSIFICATION_TYPE = U
NORAD_CAT_ID   = 67353
ELEMENT_SET_NO = 999
REV_AT_EPOCH   = 497
BSTAR          = .13154164E-2
MEAN_MOTION_DOT = .77566E-3
MEAN_MOTION_DDOT = 0

CCSDS_OMM_VERS = 2.0
CREATION_DATE  = 
ORIGINATOR     = 

OBJECT_NAME    = STARLINK-36448
OBJECT_ID      = 2026-003W
CENTER_NAME    = EARTH
REF_FRAME      = TEME
TIME_SYSTEM    = UTC
MEAN_ELEMENT_THEORY = SGP/SGP4

EPOCH          = 2026-02-02T06:00:02.000160
MEAN_MOTION    = 15.50569153
ECCENTRICITY   = .00019525
INCLINATION    = 42.9993
RA_OF_ASC_NODE = 68.7162
ARG_OF_PERICENTER = 254.2732
MEAN_ANOMALY   = 209.9373

EPHEMERIS_TYPE = 0
CLASSIFICATION_TYPE = U
NORAD_CAT_ID   = 67354
ELEMENT_SET_NO = 999
REV_AT_EPOCH   = 497
BSTAR          = .13609791E-2
MEAN_MOTION_DOT = .80297E-3
MEAN_MOTION_DDOT = 0

CCSDS_OMM_VERS = 2.0
CREATION_DATE  = 
ORIGINATOR     = 

OBJECT_NAME    = STARLINK-36477
OBJECT_ID      = 2026-003X
CENTER_NAME    = EARTH
REF_FRAME      = TEME
TIME_SYSTEM    = UTC
MEAN_ELEMENT_THEORY = SGP/SGP4

EPOCH          = 2026-02-02T06:00:02.000160
MEAN_MOTION    = 15.50566190
ECCENTRICITY   = .00018078
INCLINATION    = 42.9993
RA_OF_ASC_NODE = 68.7262
ARG_OF_PERICENTER = 262.7596
MEAN_ANOMALY   = 197.6122

EPHEMERIS_TYPE = 0
CLASSIFICATION_TYPE = U
NORAD_CAT_ID   = 67355
ELEMENT_SET_NO = 999
REV_AT_EPOCH   = 496
BSTAR          = .13381768E-2
MEAN_MOTION_DOT = .78923E-3
MEAN_MOTION_DDOT = 0

CCSDS_OMM_VERS = 2.0
CREATION_DATE  = 
ORIGINATOR     = 

OBJECT_NAME    = STARLINK-36429
OBJECT_ID      = 2026-003Y
CENTER_NAME    = EARTH
REF_FRAME      = TEME
TIME_SYSTEM    = UTC
MEAN_ELEMENT_THEORY = SGP/SGP4

EPOCH          = 2026-02-02T06:00:02.000160
MEAN_MOTION    = 15.50567406
ECCENTRICITY   = .00017107
INCLINATION    = 42.9994
RA_OF_ASC_NODE = 68.7212
ARG_OF_PERICENTER = 260.2122
MEAN_ANOMALY   = 202.0755

EPHEMERIS_TYPE = 0
CLASSIFICATION_TYPE = U
NORAD_CAT_ID   = 67356
ELEMENT_SET_NO = 999
REV_AT_EPOCH   = 496
BSTAR          = .13581468E-2
MEAN_MOTION_DOT = .80122E-3
MEAN_MOTION_DDOT = 0

CCSDS_OMM_VERS = 2.0
CREATION_DATE  = 
ORIGINATOR     = 

OBJECT_NAME    = STARLINK-36456
OBJECT_ID      = 2026-003Z
CENTER_NAME    = EARTH
REF_FRAME      = TEME
TIME_SYSTEM    = UTC
MEAN_ELEMENT_THEORY = SGP/SGP4

EPOCH          = 2026-02-02T06:00:02.000160
MEAN_MOTION    = 15.50567798
ECCENTRICITY   = .00017619
INCLINATION    = 42.9993
RA_OF_ASC_NODE = 68.7108
ARG_OF_PERICENTER = 258.9526
MEAN_ANOMALY   = 207.1745

EPHEMERIS_TYPE = 0
CLASSIFICATION_TYPE = U
NORAD_CAT_ID   = 67357
ELEMENT_SET_NO = 999
REV_AT_EPOCH   = 497
BSTAR          = .13666029E-2
MEAN_MOTION_DOT = .80629E-3
MEAN_MOTION_DDOT = 0

CCSDS_OMM_VERS = 2.0
CREATION_DATE  = 
ORIGINATOR     = 

OBJECT_NAME    = STARLINK-36466
OBJECT_ID      = 2026-003AA
CENTER_NAME    = EARTH
REF_FRAME      = TEME
TIME_SYSTEM    = UTC
MEAN_ELEMENT_THEORY = SGP/SGP4

EPOCH          = 2026-02-02T06:00:02.000160
MEAN_MOTION    = 15.50564633
ECCENTRICITY   = .00017557
INCLINATION    = 42.9993
RA_OF_ASC_NODE = 68.7060
ARG_OF_PERICENTER = 259.3024
MEAN_ANOMALY   = 208.7391

EPHEMERIS_TYPE = 0
CLASSIFICATION_TYPE = U
NORAD_CAT_ID   = 67358
ELEMENT_SET_NO = 999
REV_AT_EPOCH   = 497
BSTAR          = .1366723E-2
MEAN_MOTION_DOT = .80627E-3
MEAN_MOTION_DDOT = 0

CCSDS_OMM_VERS = 2.0
CREATION_DATE  = 
ORIGINATOR     = 

OBJECT_NAME    = STARLINK-36499
OBJECT_ID      = 2026-003AB
CENTER_NAME    = EARTH
REF_FRAME      = TEME
TIME_SYSTEM    = UTC
MEAN_ELEMENT_THEORY = SGP/SGP4

EPOCH          = 2026-02-02T06:00:02.000160
MEAN_MOTION    = 15.50568669
ECCENTRICITY   = .0001881
INCLINATION    = 42.9992
RA_OF_ASC_NODE = 68.7012
ARG_OF_PERICENTER = 260.8411
MEAN_ANOMALY   = 209.1190

EPHEMERIS_TYPE = 0
CLASSIFICATION_TYPE = U
NORAD_CAT_ID   = 67359
ELEMENT_SET_NO = 999
REV_AT_EPOCH   = 497
BSTAR          = .13134201E-2
MEAN_MOTION_DOT = .77449E-3
MEAN_MOTION_DDOT = 0

CCSDS_OMM_VERS = 2.0
CREATION_DATE  = 
ORIGINATOR     = 

OBJECT_NAME    = STARLINK-36469
OBJECT_ID      = 2026-003AC
CENTER_NAME    = EARTH
REF_FRAME      = TEME
TIME_SYSTEM    = UTC
MEAN_ELEMENT_THEORY = SGP/SGP4

EPOCH          = 2026-02-02T06:00:02.000160
MEAN_MOTION    = 15.50567687
ECCENTRICITY   = .00018308
INCLINATION    = 42.9995
RA_OF_ASC_NODE = 68.6961
ARG_OF_PERICENTER = 262.5265
MEAN_ANOMALY   = 209.3445

EPHEMERIS_TYPE = 0
CLASSIFICATION_TYPE = U
NORAD_CAT_ID   = 67360
ELEMENT_SET_NO = 999
REV_AT_EPOCH   = 497
BSTAR          = .1200604E-2
MEAN_MOTION_DOT = .70703E-3
MEAN_MOTION_DDOT = 0

CCSDS_OMM_VERS = 2.0
CREATION_DATE  = 
ORIGINATOR     = 

OBJECT_NAME    = STARLINK-35306
OBJECT_ID      = 2026-003AD
CENTER_NAME    = EARTH
REF_FRAME      = TEME
TIME_SYSTEM    = UTC
MEAN_ELEMENT_THEORY = SGP/SGP4

EPOCH          = 2026-02-02T06:00:02.000160
MEAN_MOTION    = 15.50520656
ECCENTRICITY   = .00019672
INCLINATION    = 42.9996
RA_OF_ASC_NODE = 68.6909
ARG_OF_PERICENTER = 264.2011
MEAN_ANOMALY   = 209.6164

EPHEMERIS_TYPE = 0
CLASSIFICATION_TYPE = U
NORAD_CAT_ID   = 67361
ELEMENT_SET_NO = 999
REV_AT_EPOCH   = 492
BSTAR          = .10995366E-2
MEAN_MOTION_DOT = .64564E-3
MEAN_MOTION_DDOT = 0

CCSDS_OMM_VERS = 2.0
CREATION_DATE  = 
ORIGINATOR     = 

OBJECT_NAME    = STARLINK-36428
OBJECT_ID      = 2026-003AE
CENTER_NAME    = EARTH
REF_FRAME      = TEME
TIME_SYSTEM    = UTC
MEAN_ELEMENT_THEORY = SGP/SGP4

EPOCH          = 2026-02-02T06:00:02.000160
MEAN_MOTION    = 15.51003699
ECCENTRICITY   = .00022404
INCLINATION    = 42.9994
RA_OF_ASC_NODE = 68.6856
ARG_OF_PERICENTER = 279.1074
MEAN_ANOMALY   = 196.5949

EPHEMERIS_TYPE = 0
CLASSIFICATION_TYPE = U
NORAD_CAT_ID   = 67362
ELEMENT_SET_NO = 999
REV_AT_EPOCH   = 497
BSTAR          = -.12376656E-1
MEAN_MOTION_DOT = -.677124E-2
MEAN_MOTION_DDOT = 0

CCSDS_OMM_VERS = 2.0
CREATION_DATE  = 
ORIGINATOR     = 

OBJECT_NAME    = TWILIGHT A
OBJECT_ID      = 2026-004A
CENTER_NAME    = EARTH
REF_FRAME      = TEME
TIME_SYSTEM    = UTC
MEAN_ELEMENT_THEORY = SGP/SGP4

EPOCH          = 2026-02-02T06:46:45.045984
MEAN_MOTION    = 14.87002580
ECCENTRICITY   = .00078076
INCLINATION    = 97.7990
RA_OF_ASC_NODE = 34.0572
ARG_OF_PERICENTER = 215.4369
MEAN_ANOMALY   = 144.6329

EPHEMERIS_TYPE = 0
CLASSIFICATION_TYPE = U
NORAD_CAT_ID   = 67363
ELEMENT_SET_NO = 999
REV_AT_EPOCH   = 322
BSTAR          = .59462937E-3
MEAN_MOTION_DOT = .5276E-4
MEAN_MOTION_DDOT = 0

