STARLINK-36479          
1 67352U 26003U   26033.25002315  .00043110  00000+0  73816-3 0  9992
2 67352  42.9995  68.7362 0001137 278.4004 178.2850 15.50520009  4970
STARLINK-36474          
1 67353U 26003V   26033.25002315  .00077566  00000+0  13154-2 0  9993
2 67353  42.9992  68.7310 0001797 258.4573 200.0041 15.50567818  4977
STARLINK-36448          
1 67354U 26003W   26033.25002315  .00080297  00000+0  13610-2 0  9996
2 67354  42.9993  68.7162 0001952 254.2732 209.9373 15.50569153  4978
STARLINK-36477          
1 67355U 26003X   26033.25002315  .00078923  00000+0  13382-2 0  9996
2 67355  42.9993  68.7262 0001807 262.7596 197.6122 15.50566190  4963
STARLINK-36429          
1 67356U 26003Y   26033.25002315  .00080122  00000+0  13581-2 0  9992
2 67356  42.9994  68.7212 0001710 260.2122 202.0755 15.50567406  4965
STARLINK-36456          
1 67357U 26003Z   26033.25002315  .00080629  00000+0  13666-2 0  9999
2 67357  42.9993  68.7108 0001761 258.9526 207.1745 15.50567798  4977
STARLINK-36466          
1 67358U 26003AA  26033.25002315  .00080627  00000+0  13667-2 0  9999
2 67358  42.9993  68.7060 0001755 259.3024 208.7391 15.50564633  4975
STARLINK-36499          
1 67359U 26003AB  26033.25002315  .00077449  00000+0  13134-2 0  9997
2 67359  42.9992  68.7012 0001881 260.8411 209.1190 15.50568669  4974
STARLINK-36469          
1 67360U 26003AC  26033.25002315  .00070703  00000+0  12006-2 0  9992
2 67360  42.9995  68.6961 0001830 262.5265 209.3445 15.50567687  4975
STARLINK-35306          
1 67361U 26003AD  26033.25002315  .00064564  00000+0  10995-2 0  9996
2 67361  42.9996  68.6909 0001967 264.2011 209.6164 15.50520656  4929
STARLINK-36428          
1 67362U 26003AE  26033.25002315 -.00677124  00000+0 -12377-1 0  9996
2 67362  42.9994  68.6856 0002240 279.1074 196.5949 15.51003699  4972
TWILIGHT A              
1 67363U 26004A   26033.28246581  .00005276  00000+0  59463-3 0  9996
2 67363  97.7990  34.0572 0007807 215.4369 144.6329 14.87002580  3222
